Pharmacy Name,Address,City,Region,Phone Number,Operational Hours
Pharmacy 1,1 Main St,Fergana,Samarkand,+998900000000,8:00-22:00
Pharmacy 2,2 Main St,Nukus,Bukhara,+998900000001,24/7
Pharmacy 3,3 Main St,Fergana,Samarkand,+998900000002,9:00-21:00
Pharmacy 4,4 Main St,Tashkent,Fergana,+998900000003,10:00-20:00
Pharmacy 5,5 Main St,Namangan,Karakalpakstan,+998900000004,8:00-22:00
Pharmacy 6,6 Main St,Nukus,Samarkand,+998900000005,24/7
Pharmacy 7,7 Main St,Bukhara,Namangan,+998900000006,10:00-20:00
Pharmacy 8,8 Main St,Nukus,Namangan,+998900000007,10:00-20:00
Pharmacy 9,9 Main St,Nukus,Bukhara,+998900000008,24/7
Pharmacy 10,10 Main St,Namangan,Bukhara,+998900000009,9:00-21:00
Pharmacy 11,11 Main St,Bukhara,Bukhara,+998900000010,8:00-22:00
Pharmacy 12,12 Main St,Fergana,Karakalpakstan,+998900000011,9:00-21:00
Pharmacy 13,13 Main St,Samarkand,Namangan,+998900000012,9:00-21:00
Pharmacy 14,14 Main St,Namangan,Bukhara,+998900000013,9:00-21:00
Pharmacy 15,15 Main St,Nukus,Andijan,+998900000014,9:00-21:00
Pharmacy 16,16 Main St,Tashkent,Tashkent,+998900000015,8:00-22:00
Pharmacy 17,17 Main St,Tashkent,Andijan,+998900000016,8:00-22:00
Pharmacy 18,18 Main St,Fergana,Bukhara,+998900000017,9:00-21:00
Pharmacy 19,19 Main St,Tashkent,Tashkent,+998900000018,10:00-20:00
Pharmacy 20,20 Main St,Bukhara,Tashkent,+998900000019,24/7
Pharmacy 21,21 Main St,Andijan,Samarkand,+998900000020,24/7
Pharmacy 22,22 Main St,Fergana,Karakalpakstan,+998900000021,24/7
Pharmacy 23,23 Main St,Andijan,Bukhara,+998900000022,10:00-20:00
Pharmacy 24,24 Main St,Samarkand,Fergana,+998900000023,9:00-21:00
Pharmacy 25,25 Main St,Tashkent,Bukhara,+998900000024,9:00-21:00
Pharmacy 26,26 Main St,Namangan,Samarkand,+998900000025,8:00-22:00
Pharmacy 27,27 Main St,Namangan,Tashkent,+998900000026,9:00-21:00
Pharmacy 28,28 Main St,Tashkent,Fergana,+998900000027,10:00-20:00
Pharmacy 29,29 Main St,Nukus,Fergana,+998900000028,8:00-22:00
Pharmacy 30,30 Main St,Samarkand,Samarkand,+998900000029,9:00-21:00
Pharmacy 31,31 Main St,Fergana,Tashkent,+998900000030,8:00-22:00
Pharmacy 32,32 Main St,Namangan,Bukhara,+998900000031,24/7
Pharmacy 33,33 Main St,Andijan,Andijan,+998900000032,10:00-20:00
Pharmacy 34,34 Main St,Andijan,Fergana,+998900000033,8:00-22:00
Pharmacy 35,35 Main St,Nukus,Andijan,+998900000034,9:00-21:00
Pharmacy 36,36 Main St,Andijan,Bukhara,+998900000035,8:00-22:00
Pharmacy 37,37 Main St,Tashkent,Karakalpakstan,+998900000036,10:00-20:00
Pharmacy 38,38 Main St,Namangan,Samarkand,+998900000037,9:00-21:00
Pharmacy 39,39 Main St,Bukhara,Namangan,+998900000038,9:00-21:00
Pharmacy 40,40 Main St,Fergana,Samarkand,+998900000039,10:00-20:00
Pharmacy 41,41 Main St,Namangan,Karakalpakstan,+998900000040,10:00-20:00
Pharmacy 42,42 Main St,Bukhara,Samarkand,+998900000041,24/7
Pharmacy 43,43 Main St,Namangan,Tashkent,+998900000042,9:00-21:00
Pharmacy 44,44 Main St,Tashkent,Fergana,+998900000043,9:00-21:00
Pharmacy 45,45 Main St,Namangan,Bukhara,+998900000044,9:00-21:00
Pharmacy 46,46 Main St,Nukus,Namangan,+998900000045,8:00-22:00
Pharmacy 47,47 Main St,Fergana,Samarkand,+998900000046,8:00-22:00
Pharmacy 48,48 Main St,Samarkand,Namangan,+998900000047,8:00-22:00
Pharmacy 49,49 Main St,Namangan,Tashkent,+998900000048,24/7
Pharmacy 50,50 Main St,Andijan,Samarkand,+998900000049,9:00-21:00
Pharmacy 51,51 Main St,Fergana,Bukhara,+998900000050,8:00-22:00
Pharmacy 52,52 Main St,Nukus,Bukhara,+998900000051,8:00-22:00
Pharmacy 53,53 Main St,Namangan,Karakalpakstan,+998900000052,8:00-22:00
Pharmacy 54,54 Main St,Andijan,Samarkand,+998900000053,9:00-21:00
Pharmacy 55,55 Main St,Samarkand,Namangan,+998900000054,9:00-21:00
Pharmacy 56,56 Main St,Nukus,Fergana,+998900000055,10:00-20:00
Pharmacy 57,57 Main St,Bukhara,Samarkand,+998900000056,9:00-21:00
Pharmacy 58,58 Main St,Bukhara,Samarkand,+998900000057,24/7
Pharmacy 59,59 Main St,Samarkand,Fergana,+998900000058,8:00-22:00
Pharmacy 60,60 Main St,Tashkent,Bukhara,+998900000059,10:00-20:00
Pharmacy 61,61 Main St,Nukus,Bukhara,+998900000060,8:00-22:00
Pharmacy 62,62 Main St,Fergana,Samarkand,+998900000061,8:00-22:00
Pharmacy 63,63 Main St,Tashkent,Andijan,+998900000062,24/7
Pharmacy 64,64 Main St,Nukus,Tashkent,+998900000063,8:00-22:00
Pharmacy 65,65 Main St,Tashkent,Namangan,+998900000064,8:00-22:00
Pharmacy 66,66 Main St,Samarkand,Samarkand,+998900000065,24/7
Pharmacy 67,67 Main St,Namangan,Andijan,+998900000066,24/7
Pharmacy 68,68 Main St,Fergana,Karakalpakstan,+998900000067,10:00-20:00
Pharmacy 69,69 Main St,Fergana,Tashkent,+998900000068,9:00-21:00
Pharmacy 70,70 Main St,Bukhara,Andijan,+998900000069,10:00-20:00
Pharmacy 71,71 Main St,Namangan,Namangan,+998900000070,24/7
Pharmacy 72,72 Main St,Tashkent,Andijan,+998900000071,9:00-21:00
Pharmacy 73,73 Main St,Samarkand,Tashkent,+998900000072,9:00-21:00
Pharmacy 74,74 Main St,Nukus,Andijan,+998900000073,10:00-20:00
Pharmacy 75,75 Main St,Andijan,Namangan,+998900000074,24/7
Pharmacy 76,76 Main St,Fergana,Karakalpakstan,+998900000075,24/7
Pharmacy 77,77 Main St,Namangan,Andijan,+998900000076,10:00-20:00
Pharmacy 78,78 Main St,Andijan,Fergana,+998900000077,24/7
Pharmacy 79,79 Main St,Samarkand,Namangan,+998900000078,10:00-20:00
Pharmacy 80,80 Main St,Bukhara,Andijan,+998900000079,24/7
Pharmacy 81,81 Main St,Fergana,Fergana,+998900000080,24/7
Pharmacy 82,82 Main St,Namangan,Fergana,+998900000081,8:00-22:00
Pharmacy 83,83 Main St,Fergana,Tashkent,+998900000082,8:00-22:00
Pharmacy 84,84 Main St,Nukus,Fergana,+998900000083,10:00-20:00
Pharmacy 85,85 Main St,Samarkand,Namangan,+998900000084,8:00-22:00
Pharmacy 86,86 Main St,Namangan,Tashkent,+998900000085,10:00-20:00
Pharmacy 87,87 Main St,Fergana,Bukhara,+998900000086,24/7
Pharmacy 88,88 Main St,Tashkent,Karakalpakstan,+998900000087,10:00-20:00
Pharmacy 89,89 Main St,Samarkand,Fergana,+998900000088,8:00-22:00
Pharmacy 90,90 Main St,Andijan,Fergana,+998900000089,24/7
Pharmacy 91,91 Main St,Samarkand,Andijan,+998900000090,24/7
Pharmacy 92,92 Main St,Tashkent,Bukhara,+998900000091,8:00-22:00
Pharmacy 93,93 Main St,Fergana,Fergana,+998900000092,9:00-21:00
Pharmacy 94,94 Main St,Samarkand,Andijan,+998900000093,24/7
Pharmacy 95,95 Main St,Fergana,Fergana,+998900000094,10:00-20:00
Pharmacy 96,96 Main St,Tashkent,Bukhara,+998900000095,10:00-20:00
Pharmacy 97,97 Main St,Tashkent,Namangan,+998900000096,9:00-21:00
Pharmacy 98,98 Main St,Samarkand,Fergana,+998900000097,10:00-20:00
Pharmacy 99,99 Main St,Namangan,Bukhara,+998900000098,8:00-22:00
Pharmacy 100,100 Main St,Fergana,Samarkand,+998900000099,8:00-22:00
Pharmacy 101,101 Main St,Andijan,Tashkent,+998900000100,24/7
Pharmacy 102,102 Main St,Andijan,Tashkent,+998900000101,10:00-20:00
Pharmacy 103,103 Main St,Bukhara,Andijan,+998900000102,10:00-20:00
Pharmacy 104,104 Main St,Andijan,Namangan,+998900000103,8:00-22:00
Pharmacy 105,105 Main St,Samarkand,Fergana,+998900000104,8:00-22:00
Pharmacy 106,106 Main St,Bukhara,Samarkand,+998900000105,8:00-22:00
Pharmacy 107,107 Main St,Namangan,Fergana,+998900000106,24/7
Pharmacy 108,108 Main St,Nukus,Bukhara,+998900000107,8:00-22:00
Pharmacy 109,109 Main St,Namangan,Fergana,+998900000108,24/7
Pharmacy 110,110 Main St,Andijan,Bukhara,+998900000109,24/7
Pharmacy 111,111 Main St,Andijan,Andijan,+998900000110,10:00-20:00
Pharmacy 112,112 Main St,Nukus,Bukhara,+998900000111,24/7
Pharmacy 113,113 Main St,Andijan,Karakalpakstan,+998900000112,8:00-22:00
Pharmacy 114,114 Main St,Namangan,Bukhara,+998900000113,24/7
Pharmacy 115,115 Main St,Samarkand,Karakalpakstan,+998900000114,8:00-22:00
Pharmacy 116,116 Main St,Andijan,Andijan,+998900000115,8:00-22:00
Pharmacy 117,117 Main St,Nukus,Samarkand,+998900000116,24/7
Pharmacy 118,118 Main St,Tashkent,Karakalpakstan,+998900000117,24/7
Pharmacy 119,119 Main St,Namangan,Andijan,+998900000118,9:00-21:00
Pharmacy 120,120 Main St,Tashkent,Tashkent,+998900000119,10:00-20:00
Pharmacy 121,121 Main St,Andijan,Karakalpakstan,+998900000120,8:00-22:00
Pharmacy 122,122 Main St,Namangan,Samarkand,+998900000121,9:00-21:00
Pharmacy 123,123 Main St,Samarkand,Andijan,+998900000122,8:00-22:00
Pharmacy 124,124 Main St,Namangan,Bukhara,+998900000123,9:00-21:00
Pharmacy 125,125 Main St,Samarkand,Karakalpakstan,+998900000124,24/7
Pharmacy 126,126 Main St,Nukus,Bukhara,+998900000125,10:00-20:00
Pharmacy 127,127 Main St,Andijan,Samarkand,+998900000126,9:00-21:00
Pharmacy 128,128 Main St,Nukus,Namangan,+998900000127,10:00-20:00
Pharmacy 129,129 Main St,Nukus,Tashkent,+998900000128,10:00-20:00
Pharmacy 130,130 Main St,Bukhara,Namangan,+998900000129,10:00-20:00
Pharmacy 131,131 Main St,Nukus,Karakalpakstan,+998900000130,24/7
Pharmacy 132,132 Main St,Namangan,Tashkent,+998900000131,10:00-20:00
Pharmacy 133,133 Main St,Namangan,Samarkand,+998900000132,9:00-21:00
Pharmacy 134,134 Main St,Namangan,Fergana,+998900000133,10:00-20:00
Pharmacy 135,135 Main St,Tashkent,Andijan,+998900000134,24/7
Pharmacy 136,136 Main St,Andijan,Samarkand,+998900000135,8:00-22:00
Pharmacy 137,137 Main St,Bukhara,Namangan,+998900000136,8:00-22:00
Pharmacy 138,138 Main St,Samarkand,Andijan,+998900000137,24/7
Pharmacy 139,139 Main St,Tashkent,Andijan,+998900000138,9:00-21:00
Pharmacy 140,140 Main St,Tashkent,Namangan,+998900000139,8:00-22:00
Pharmacy 141,141 Main St,Fergana,Fergana,+998900000140,24/7
Pharmacy 142,142 Main St,Andijan,Fergana,+998900000141,9:00-21:00
Pharmacy 143,143 Main St,Andijan,Karakalpakstan,+998900000142,24/7
Pharmacy 144,144 Main St,Namangan,Fergana,+998900000143,8:00-22:00
Pharmacy 145,145 Main St,Bukhara,Karakalpakstan,+998900000144,9:00-21:00
Pharmacy 146,146 Main St,Andijan,Namangan,+998900000145,8:00-22:00
Pharmacy 147,147 Main St,Andijan,Samarkand,+998900000146,8:00-22:00
Pharmacy 148,148 Main St,Fergana,Samarkand,+998900000147,10:00-20:00
Pharmacy 149,149 Main St,Fergana,Namangan,+998900000148,10:00-20:00
Pharmacy 150,150 Main St,Nukus,Fergana,+998900000149,24/7
Pharmacy 151,151 Main St,Nukus,Tashkent,+998900000150,10:00-20:00
Pharmacy 152,152 Main St,Samarkand,Tashkent,+998900000151,9:00-21:00
Pharmacy 153,153 Main St,Tashkent,Andijan,+998900000152,24/7
Pharmacy 154,154 Main St,Namangan,Namangan,+998900000153,10:00-20:00
Pharmacy 155,155 Main St,Andijan,Andijan,+998900000154,10:00-20:00
Pharmacy 156,156 Main St,Samarkand,Karakalpakstan,+998900000155,10:00-20:00
Pharmacy 157,157 Main St,Tashkent,Samarkand,+998900000156,9:00-21:00
Pharmacy 158,158 Main St,Namangan,Tashkent,+998900000157,9:00-21:00
Pharmacy 159,159 Main St,Fergana,Namangan,+998900000158,8:00-22:00
Pharmacy 160,160 Main St,Fergana,Andijan,+998900000159,8:00-22:00
Pharmacy 161,161 Main St,Andijan,Fergana,+998900000160,9:00-21:00
Pharmacy 162,162 Main St,Tashkent,Bukhara,+998900000161,10:00-20:00
Pharmacy 163,163 Main St,Bukhara,Tashkent,+998900000162,9:00-21:00
Pharmacy 164,164 Main St,Andijan,Namangan,+998900000163,8:00-22:00
Pharmacy 165,165 Main St,Bukhara,Andijan,+998900000164,9:00-21:00
Pharmacy 166,166 Main St,Fergana,Bukhara,+998900000165,24/7
Pharmacy 167,167 Main St,Nukus,Samarkand,+998900000166,9:00-21:00
Pharmacy 168,168 Main St,Namangan,Andijan,+998900000167,9:00-21:00
Pharmacy 169,169 Main St,Nukus,Samarkand,+998900000168,24/7
Pharmacy 170,170 Main St,Samarkand,Andijan,+998900000169,24/7
Pharmacy 171,171 Main St,Samarkand,Bukhara,+998900000170,9:00-21:00
Pharmacy 172,172 Main St,Namangan,Fergana,+998900000171,10:00-20:00
Pharmacy 173,173 Main St,Fergana,Bukhara,+998900000172,9:00-21:00
Pharmacy 174,174 Main St,Fergana,Tashkent,+998900000173,8:00-22:00
Pharmacy 175,175 Main St,Tashkent,Tashkent,+998900000174,8:00-22:00
Pharmacy 176,176 Main St,Samarkand,Tashkent,+998900000175,8:00-22:00
Pharmacy 177,177 Main St,Andijan,Fergana,+998900000176,10:00-20:00
Pharmacy 178,178 Main St,Tashkent,Namangan,+998900000177,24/7
Pharmacy 179,179 Main St,Bukhara,Namangan,+998900000178,10:00-20:00
Pharmacy 180,180 Main St,Samarkand,Bukhara,+998900000179,8:00-22:00
Pharmacy 181,181 Main St,Tashkent,Namangan,+998900000180,24/7
Pharmacy 182,182 Main St,Nukus,Andijan,+998900000181,9:00-21:00
Pharmacy 183,183 Main St,Namangan,Tashkent,+998900000182,10:00-20:00
Pharmacy 184,184 Main St,Bukhara,Samarkand,+998900000183,9:00-21:00
Pharmacy 185,185 Main St,Fergana,Fergana,+998900000184,8:00-22:00
Pharmacy 186,186 Main St,Andijan,Samarkand,+998900000185,8:00-22:00
Pharmacy 187,187 Main St,Tashkent,Karakalpakstan,+998900000186,24/7
Pharmacy 188,188 Main St,Namangan,Tashkent,+998900000187,24/7
Pharmacy 189,189 Main St,Andijan,Samarkand,+998900000188,8:00-22:00
Pharmacy 190,190 Main St,Bukhara,Bukhara,+998900000189,9:00-21:00
Pharmacy 191,191 Main St,Andijan,Namangan,+998900000190,8:00-22:00
Pharmacy 192,192 Main St,Fergana,Samarkand,+998900000191,9:00-21:00
Pharmacy 193,193 Main St,Nukus,Samarkand,+998900000192,8:00-22:00
Pharmacy 194,194 Main St,Fergana,Andijan,+998900000193,10:00-20:00
Pharmacy 195,195 Main St,Andijan,Tashkent,+998900000194,8:00-22:00
Pharmacy 196,196 Main St,Andijan,Fergana,+998900000195,10:00-20:00
Pharmacy 197,197 Main St,Fergana,Samarkand,+998900000196,8:00-22:00
Pharmacy 198,198 Main St,Nukus,Namangan,+998900000197,9:00-21:00
Pharmacy 199,199 Main St,Namangan,Karakalpakstan,+998900000198,10:00-20:00
Pharmacy 200,200 Main St,Andijan,Karakalpakstan,+998900000199,10:00-20:00
Pharmacy 201,201 Main St,Nukus,Tashkent,+998900000200,8:00-22:00
Pharmacy 202,202 Main St,Bukhara,Tashkent,+998900000201,10:00-20:00
Pharmacy 203,203 Main St,Nukus,Fergana,+998900000202,8:00-22:00
Pharmacy 204,204 Main St,Bukhara,Tashkent,+998900000203,10:00-20:00
Pharmacy 205,205 Main St,Tashkent,Andijan,+998900000204,10:00-20:00
Pharmacy 206,206 Main St,Bukhara,Andijan,+998900000205,8:00-22:00
Pharmacy 207,207 Main St,Namangan,Bukhara,+998900000206,10:00-20:00
Pharmacy 208,208 Main St,Tashkent,Bukhara,+998900000207,9:00-21:00
Pharmacy 209,209 Main St,Fergana,Samarkand,+998900000208,24/7
Pharmacy 210,210 Main St,Fergana,Fergana,+998900000209,24/7
Pharmacy 211,211 Main St,Andijan,Andijan,+998900000210,8:00-22:00
Pharmacy 212,212 Main St,Andijan,Karakalpakstan,+998900000211,9:00-21:00
Pharmacy 213,213 Main St,Namangan,Tashkent,+998900000212,10:00-20:00
Pharmacy 214,214 Main St,Bukhara,Fergana,+998900000213,8:00-22:00
Pharmacy 215,215 Main St,Namangan,Bukhara,+998900000214,8:00-22:00
Pharmacy 216,216 Main St,Andijan,Namangan,+998900000215,9:00-21:00
Pharmacy 217,217 Main St,Tashkent,Andijan,+998900000216,10:00-20:00
Pharmacy 218,218 Main St,Bukhara,Fergana,+998900000217,8:00-22:00
Pharmacy 219,219 Main St,Bukhara,Namangan,+998900000218,8:00-22:00
Pharmacy 220,220 Main St,Tashkent,Namangan,+998900000219,10:00-20:00
Pharmacy 221,221 Main St,Bukhara,Namangan,+998900000220,10:00-20:00
Pharmacy 222,222 Main St,Tashkent,Fergana,+998900000221,9:00-21:00
Pharmacy 223,223 Main St,Andijan,Samarkand,+998900000222,24/7
Pharmacy 224,224 Main St,Fergana,Bukhara,+998900000223,24/7
Pharmacy 225,225 Main St,Fergana,Samarkand,+998900000224,8:00-22:00
Pharmacy 226,226 Main St,Bukhara,Bukhara,+998900000225,10:00-20:00
Pharmacy 227,227 Main St,Fergana,Bukhara,+998900000226,9:00-21:00
Pharmacy 228,228 Main St,Namangan,Namangan,+998900000227,24/7
Pharmacy 229,229 Main St,Tashkent,Karakalpakstan,+998900000228,24/7
Pharmacy 230,230 Main St,Namangan,Fergana,+998900000229,10:00-20:00
Pharmacy 231,231 Main St,Samarkand,Bukhara,+998900000230,10:00-20:00
Pharmacy 232,232 Main St,Tashkent,Tashkent,+998900000231,24/7
Pharmacy 233,233 Main St,Nukus,Andijan,+998900000232,9:00-21:00
Pharmacy 234,234 Main St,Samarkand,Namangan,+998900000233,24/7
Pharmacy 235,235 Main St,Andijan,Bukhara,+998900000234,9:00-21:00
Pharmacy 236,236 Main St,Nukus,Namangan,+998900000235,9:00-21:00
Pharmacy 237,237 Main St,Fergana,Tashkent,+998900000236,8:00-22:00
Pharmacy 238,238 Main St,Bukhara,Fergana,+998900000237,9:00-21:00
Pharmacy 239,239 Main St,Andijan,Tashkent,+998900000238,8:00-22:00
Pharmacy 240,240 Main St,Fergana,Namangan,+998900000239,9:00-21:00
Pharmacy 241,241 Main St,Andijan,Bukhara,+998900000240,24/7
Pharmacy 242,242 Main St,Tashkent,Namangan,+998900000241,24/7
Pharmacy 243,243 Main St,Namangan,Bukhara,+998900000242,24/7
Pharmacy 244,244 Main St,Tashkent,Namangan,+998900000243,24/7
Pharmacy 245,245 Main St,Fergana,Namangan,+998900000244,8:00-22:00
Pharmacy 246,246 Main St,Nukus,Namangan,+998900000245,9:00-21:00
Pharmacy 247,247 Main St,Samarkand,Bukhara,+998900000246,8:00-22:00
Pharmacy 248,248 Main St,Tashkent,Karakalpakstan,+998900000247,24/7
Pharmacy 249,249 Main St,Nukus,Fergana,+998900000248,10:00-20:00
Pharmacy 250,250 Main St,Samarkand,Bukhara,+998900000249,8:00-22:00
Pharmacy 251,251 Main St,Namangan,Fergana,+998900000250,8:00-22:00
Pharmacy 252,252 Main St,Fergana,Samarkand,+998900000251,8:00-22:00
Pharmacy 253,253 Main St,Bukhara,Samarkand,+998900000252,10:00-20:00
Pharmacy 254,254 Main St,Fergana,Tashkent,+998900000253,8:00-22:00
Pharmacy 255,255 Main St,Andijan,Tashkent,+998900000254,10:00-20:00
Pharmacy 256,256 Main St,Andijan,Tashkent,+998900000255,10:00-20:00
Pharmacy 257,257 Main St,Bukhara,Karakalpakstan,+998900000256,24/7
Pharmacy 258,258 Main St,Bukhara,Tashkent,+998900000257,10:00-20:00
Pharmacy 259,259 Main St,Samarkand,Karakalpakstan,+998900000258,24/7
Pharmacy 260,260 Main St,Bukhara,Tashkent,+998900000259,10:00-20:00
Pharmacy 261,261 Main St,Andijan,Namangan,+998900000260,10:00-20:00
Pharmacy 262,262 Main St,Nukus,Samarkand,+998900000261,9:00-21:00
Pharmacy 263,263 Main St,Bukhara,Namangan,+998900000262,24/7
Pharmacy 264,264 Main St,Namangan,Bukhara,+998900000263,10:00-20:00
Pharmacy 265,265 Main St,Nukus,Karakalpakstan,+998900000264,10:00-20:00
Pharmacy 266,266 Main St,Namangan,Karakalpakstan,+998900000265,8:00-22:00
Pharmacy 267,267 Main St,Nukus,Bukhara,+998900000266,9:00-21:00
Pharmacy 268,268 Main St,Fergana,Tashkent,+998900000267,24/7
Pharmacy 269,269 Main St,Andijan,Namangan,+998900000268,24/7
Pharmacy 270,270 Main St,Samarkand,Namangan,+998900000269,24/7
Pharmacy 271,271 Main St,Samarkand,Andijan,+998900000270,10:00-20:00
Pharmacy 272,272 Main St,Andijan,Namangan,+998900000271,24/7
Pharmacy 273,273 Main St,Fergana,Tashkent,+998900000272,24/7
Pharmacy 274,274 Main St,Fergana,Fergana,+998900000273,24/7
Pharmacy 275,275 Main St,Bukhara,Samarkand,+998900000274,8:00-22:00
Pharmacy 276,276 Main St,Namangan,Tashkent,+998900000275,10:00-20:00
Pharmacy 277,277 Main St,Bukhara,Bukhara,+998900000276,9:00-21:00
Pharmacy 278,278 Main St,Samarkand,Namangan,+998900000277,9:00-21:00
Pharmacy 279,279 Main St,Namangan,Namangan,+998900000278,8:00-22:00
Pharmacy 280,280 Main St,Samarkand,Fergana,+998900000279,24/7
Pharmacy 281,281 Main St,Fergana,Tashkent,+998900000280,8:00-22:00
Pharmacy 282,282 Main St,Namangan,Bukhara,+998900000281,10:00-20:00
Pharmacy 283,283 Main St,Andijan,Samarkand,+998900000282,9:00-21:00
Pharmacy 284,284 Main St,Andijan,Namangan,+998900000283,9:00-21:00
Pharmacy 285,285 Main St,Namangan,Samarkand,+998900000284,8:00-22:00
Pharmacy 286,286 Main St,Bukhara,Namangan,+998900000285,8:00-22:00
Pharmacy 287,287 Main St,Fergana,Andijan,+998900000286,24/7
Pharmacy 288,288 Main St,Bukhara,Tashkent,+998900000287,8:00-22:00
Pharmacy 289,289 Main St,Tashkent,Bukhara,+998900000288,10:00-20:00
Pharmacy 290,290 Main St,Namangan,Tashkent,+998900000289,10:00-20:00
Pharmacy 291,291 Main St,Fergana,Samarkand,+998900000290,10:00-20:00
Pharmacy 292,292 Main St,Tashkent,Bukhara,+998900000291,24/7
Pharmacy 293,293 Main St,Andijan,Fergana,+998900000292,10:00-20:00
Pharmacy 294,294 Main St,Andijan,Namangan,+998900000293,10:00-20:00
Pharmacy 295,295 Main St,Andijan,Namangan,+998900000294,9:00-21:00
Pharmacy 296,296 Main St,Namangan,Karakalpakstan,+998900000295,24/7
Pharmacy 297,297 Main St,Samarkand,Fergana,+998900000296,10:00-20:00
Pharmacy 298,298 Main St,Andijan,Samarkand,+998900000297,8:00-22:00
Pharmacy 299,299 Main St,Namangan,Tashkent,+998900000298,8:00-22:00
Pharmacy 300,300 Main St,Tashkent,Andijan,+998900000299,8:00-22:00
Pharmacy 301,301 Main St,Tashkent,Andijan,+998900000300,24/7
Pharmacy 302,302 Main St,Samarkand,Fergana,+998900000301,8:00-22:00
Pharmacy 303,303 Main St,Bukhara,Fergana,+998900000302,24/7
Pharmacy 304,304 Main St,Samarkand,Bukhara,+998900000303,10:00-20:00
Pharmacy 305,305 Main St,Tashkent,Samarkand,+998900000304,9:00-21:00
Pharmacy 306,306 Main St,Namangan,Karakalpakstan,+998900000305,8:00-22:00
Pharmacy 307,307 Main St,Nukus,Bukhara,+998900000306,8:00-22:00
Pharmacy 308,308 Main St,Samarkand,Bukhara,+998900000307,9:00-21:00
Pharmacy 309,309 Main St,Samarkand,Namangan,+998900000308,24/7
Pharmacy 310,310 Main St,Bukhara,Namangan,+998900000309,8:00-22:00
Pharmacy 311,311 Main St,Samarkand,Tashkent,+998900000310,9:00-21:00
Pharmacy 312,312 Main St,Namangan,Namangan,+998900000311,9:00-21:00
Pharmacy 313,313 Main St,Andijan,Bukhara,+998900000312,10:00-20:00
Pharmacy 314,314 Main St,Fergana,Samarkand,+998900000313,24/7
Pharmacy 315,315 Main St,Namangan,Bukhara,+998900000314,24/7
Pharmacy 316,316 Main St,Namangan,Namangan,+998900000315,8:00-22:00
Pharmacy 317,317 Main St,Nukus,Andijan,+998900000316,24/7
Pharmacy 318,318 Main St,Fergana,Bukhara,+998900000317,10:00-20:00
Pharmacy 319,319 Main St,Samarkand,Fergana,+998900000318,24/7
Pharmacy 320,320 Main St,Nukus,Namangan,+998900000319,8:00-22:00
Pharmacy 321,321 Main St,Namangan,Bukhara,+998900000320,24/7
Pharmacy 322,322 Main St,Samarkand,Fergana,+998900000321,9:00-21:00
Pharmacy 323,323 Main St,Bukhara,Fergana,+998900000322,8:00-22:00
Pharmacy 324,324 Main St,Andijan,Bukhara,+998900000323,10:00-20:00
Pharmacy 325,325 Main St,Tashkent,Karakalpakstan,+998900000324,24/7
Pharmacy 326,326 Main St,Fergana,Samarkand,+998900000325,9:00-21:00
Pharmacy 327,327 Main St,Fergana,Samarkand,+998900000326,10:00-20:00
Pharmacy 328,328 Main St,Tashkent,Andijan,+998900000327,8:00-22:00
Pharmacy 329,329 Main St,Namangan,Bukhara,+998900000328,8:00-22:00
Pharmacy 330,330 Main St,Namangan,Karakalpakstan,+998900000329,9:00-21:00
Pharmacy 331,331 Main St,Namangan,Bukhara,+998900000330,10:00-20:00
Pharmacy 332,332 Main St,Namangan,Bukhara,+998900000331,9:00-21:00
Pharmacy 333,333 Main St,Namangan,Karakalpakstan,+998900000332,24/7
Pharmacy 334,334 Main St,Andijan,Tashkent,+998900000333,24/7
Pharmacy 335,335 Main St,Andijan,Karakalpakstan,+998900000334,10:00-20:00
Pharmacy 336,336 Main St,Tashkent,Namangan,+998900000335,8:00-22:00
Pharmacy 337,337 Main St,Samarkand,Fergana,+998900000336,10:00-20:00
Pharmacy 338,338 Main St,Bukhara,Andijan,+998900000337,10:00-20:00
Pharmacy 339,339 Main St,Namangan,Tashkent,+998900000338,9:00-21:00
Pharmacy 340,340 Main St,Nukus,Bukhara,+998900000339,24/7
Pharmacy 341,341 Main St,Andijan,Fergana,+998900000340,24/7
Pharmacy 342,342 Main St,Andijan,Karakalpakstan,+998900000341,24/7
Pharmacy 343,343 Main St,Andijan,Samarkand,+998900000342,24/7
Pharmacy 344,344 Main St,Namangan,Bukhara,+998900000343,8:00-22:00
Pharmacy 345,345 Main St,Fergana,Andijan,+998900000344,10:00-20:00
Pharmacy 346,346 Main St,Andijan,Samarkand,+998900000345,24/7
Pharmacy 347,347 Main St,Tashkent,Bukhara,+998900000346,24/7
Pharmacy 348,348 Main St,Samarkand,Bukhara,+998900000347,9:00-21:00
Pharmacy 349,349 Main St,Nukus,Andijan,+998900000348,24/7
Pharmacy 350,350 Main St,Tashkent,Samarkand,+998900000349,8:00-22:00
Pharmacy 351,351 Main St,Samarkand,Karakalpakstan,+998900000350,8:00-22:00
Pharmacy 352,352 Main St,Andijan,Samarkand,+998900000351,24/7
Pharmacy 353,353 Main St,Tashkent,Bukhara,+998900000352,9:00-21:00
Pharmacy 354,354 Main St,Namangan,Karakalpakstan,+998900000353,24/7
Pharmacy 355,355 Main St,Samarkand,Tashkent,+998900000354,9:00-21:00
Pharmacy 356,356 Main St,Samarkand,Tashkent,+998900000355,9:00-21:00
Pharmacy 357,357 Main St,Fergana,Fergana,+998900000356,9:00-21:00
Pharmacy 358,358 Main St,Nukus,Tashkent,+998900000357,24/7
Pharmacy 359,359 Main St,Bukhara,Fergana,+998900000358,9:00-21:00
Pharmacy 360,360 Main St,Namangan,Tashkent,+998900000359,10:00-20:00
Pharmacy 361,361 Main St,Andijan,Karakalpakstan,+998900000360,8:00-22:00
Pharmacy 362,362 Main St,Namangan,Andijan,+998900000361,24/7
Pharmacy 363,363 Main St,Andijan,Andijan,+998900000362,9:00-21:00
Pharmacy 364,364 Main St,Bukhara,Namangan,+998900000363,10:00-20:00
Pharmacy 365,365 Main St,Nukus,Karakalpakstan,+998900000364,24/7
Pharmacy 366,366 Main St,Andijan,Karakalpakstan,+998900000365,8:00-22:00
Pharmacy 367,367 Main St,Nukus,Karakalpakstan,+998900000366,9:00-21:00
Pharmacy 368,368 Main St,Bukhara,Karakalpakstan,+998900000367,9:00-21:00
Pharmacy 369,369 Main St,Nukus,Samarkand,+998900000368,9:00-21:00
Pharmacy 370,370 Main St,Samarkand,Bukhara,+998900000369,8:00-22:00
Pharmacy 371,371 Main St,Nukus,Fergana,+998900000370,9:00-21:00
Pharmacy 372,372 Main St,Nukus,Tashkent,+998900000371,9:00-21:00
Pharmacy 373,373 Main St,Nukus,Karakalpakstan,+998900000372,10:00-20:00
Pharmacy 374,374 Main St,Andijan,Tashkent,+998900000373,24/7
Pharmacy 375,375 Main St,Tashkent,Andijan,+998900000374,8:00-22:00
Pharmacy 376,376 Main St,Nukus,Samarkand,+998900000375,8:00-22:00
Pharmacy 377,377 Main St,Andijan,Karakalpakstan,+998900000376,8:00-22:00
Pharmacy 378,378 Main St,Tashkent,Karakalpakstan,+998900000377,10:00-20:00
Pharmacy 379,379 Main St,Fergana,Tashkent,+998900000378,9:00-21:00
Pharmacy 380,380 Main St,Tashkent,Bukhara,+998900000379,9:00-21:00
Pharmacy 381,381 Main St,Namangan,Bukhara,+998900000380,24/7
Pharmacy 382,382 Main St,Nukus,Fergana,+998900000381,9:00-21:00
Pharmacy 383,383 Main St,Samarkand,Bukhara,+998900000382,24/7
Pharmacy 384,384 Main St,Namangan,Andijan,+998900000383,10:00-20:00
Pharmacy 385,385 Main St,Fergana,Fergana,+998900000384,10:00-20:00
Pharmacy 386,386 Main St,Andijan,Namangan,+998900000385,24/7
Pharmacy 387,387 Main St,Andijan,Tashkent,+998900000386,24/7
Pharmacy 388,388 Main St,Bukhara,Andijan,+998900000387,8:00-22:00
Pharmacy 389,389 Main St,Namangan,Andijan,+998900000388,10:00-20:00
Pharmacy 390,390 Main St,Bukhara,Andijan,+998900000389,10:00-20:00
Pharmacy 391,391 Main St,Namangan,Andijan,+998900000390,10:00-20:00
Pharmacy 392,392 Main St,Tashkent,Tashkent,+998900000391,9:00-21:00
Pharmacy 393,393 Main St,Tashkent,Fergana,+998900000392,9:00-21:00
Pharmacy 394,394 Main St,Tashkent,Fergana,+998900000393,8:00-22:00
Pharmacy 395,395 Main St,Samarkand,Andijan,+998900000394,9:00-21:00
Pharmacy 396,396 Main St,Nukus,Karakalpakstan,+998900000395,8:00-22:00
Pharmacy 397,397 Main St,Nukus,Samarkand,+998900000396,24/7
Pharmacy 398,398 Main St,Nukus,Namangan,+998900000397,9:00-21:00
Pharmacy 399,399 Main St,Fergana,Samarkand,+998900000398,10:00-20:00
Pharmacy 400,400 Main St,Bukhara,Samarkand,+998900000399,8:00-22:00
Pharmacy 401,401 Main St,Fergana,Namangan,+998900000400,9:00-21:00
Pharmacy 402,402 Main St,Fergana,Fergana,+998900000401,8:00-22:00
Pharmacy 403,403 Main St,Nukus,Fergana,+998900000402,9:00-21:00
Pharmacy 404,404 Main St,Namangan,Namangan,+998900000403,10:00-20:00
Pharmacy 405,405 Main St,Bukhara,Andijan,+998900000404,9:00-21:00
Pharmacy 406,406 Main St,Namangan,Bukhara,+998900000405,24/7
Pharmacy 407,407 Main St,Bukhara,Namangan,+998900000406,24/7
Pharmacy 408,408 Main St,Samarkand,Bukhara,+998900000407,9:00-21:00
Pharmacy 409,409 Main St,Nukus,Bukhara,+998900000408,8:00-22:00
Pharmacy 410,410 Main St,Namangan,Samarkand,+998900000409,10:00-20:00
Pharmacy 411,411 Main St,Bukhara,Fergana,+998900000410,24/7
Pharmacy 412,412 Main St,Bukhara,Samarkand,+998900000411,9:00-21:00
Pharmacy 413,413 Main St,Bukhara,Bukhara,+998900000412,10:00-20:00
Pharmacy 414,414 Main St,Bukhara,Fergana,+998900000413,9:00-21:00
Pharmacy 415,415 Main St,Tashkent,Bukhara,+998900000414,24/7
Pharmacy 416,416 Main St,Tashkent,Namangan,+998900000415,9:00-21:00
Pharmacy 417,417 Main St,Samarkand,Fergana,+998900000416,10:00-20:00
Pharmacy 418,418 Main St,Tashkent,Fergana,+998900000417,24/7
Pharmacy 419,419 Main St,Samarkand,Fergana,+998900000418,10:00-20:00
Pharmacy 420,420 Main St,Andijan,Fergana,+998900000419,8:00-22:00
Pharmacy 421,421 Main St,Tashkent,Bukhara,+998900000420,8:00-22:00
Pharmacy 422,422 Main St,Namangan,Karakalpakstan,+998900000421,8:00-22:00
Pharmacy 423,423 Main St,Andijan,Karakalpakstan,+998900000422,10:00-20:00
Pharmacy 424,424 Main St,Bukhara,Andijan,+998900000423,10:00-20:00
Pharmacy 425,425 Main St,Andijan,Tashkent,+998900000424,8:00-22:00
Pharmacy 426,426 Main St,Bukhara,Karakalpakstan,+998900000425,24/7
Pharmacy 427,427 Main St,Tashkent,Bukhara,+998900000426,9:00-21:00
Pharmacy 428,428 Main St,Fergana,Karakalpakstan,+998900000427,24/7
Pharmacy 429,429 Main St,Tashkent,Bukhara,+998900000428,10:00-20:00
Pharmacy 430,430 Main St,Namangan,Andijan,+998900000429,8:00-22:00
Pharmacy 431,431 Main St,Bukhara,Fergana,+998900000430,24/7
Pharmacy 432,432 Main St,Andijan,Namangan,+998900000431,8:00-22:00
Pharmacy 433,433 Main St,Fergana,Samarkand,+998900000432,9:00-21:00
Pharmacy 434,434 Main St,Nukus,Andijan,+998900000433,8:00-22:00
Pharmacy 435,435 Main St,Tashkent,Karakalpakstan,+998900000434,9:00-21:00
Pharmacy 436,436 Main St,Tashkent,Tashkent,+998900000435,8:00-22:00
Pharmacy 437,437 Main St,Nukus,Namangan,+998900000436,9:00-21:00
Pharmacy 438,438 Main St,Nukus,Samarkand,+998900000437,9:00-21:00
Pharmacy 439,439 Main St,Fergana,Karakalpakstan,+998900000438,9:00-21:00
Pharmacy 440,440 Main St,Nukus,Namangan,+998900000439,24/7
Pharmacy 441,441 Main St,Namangan,Samarkand,+998900000440,24/7
Pharmacy 442,442 Main St,Nukus,Bukhara,+998900000441,24/7
Pharmacy 443,443 Main St,Bukhara,Karakalpakstan,+998900000442,8:00-22:00
Pharmacy 444,444 Main St,Namangan,Samarkand,+998900000443,8:00-22:00
Pharmacy 445,445 Main St,Nukus,Tashkent,+998900000444,10:00-20:00
Pharmacy 446,446 Main St,Nukus,Bukhara,+998900000445,8:00-22:00
Pharmacy 447,447 Main St,Namangan,Samarkand,+998900000446,8:00-22:00
Pharmacy 448,448 Main St,Andijan,Samarkand,+998900000447,24/7
Pharmacy 449,449 Main St,Nukus,Bukhara,+998900000448,10:00-20:00
Pharmacy 450,450 Main St,Nukus,Andijan,+998900000449,24/7
Pharmacy 451,451 Main St,Nukus,Samarkand,+998900000450,9:00-21:00
Pharmacy 452,452 Main St,Namangan,Samarkand,+998900000451,10:00-20:00
Pharmacy 453,453 Main St,Andijan,Samarkand,+998900000452,8:00-22:00
Pharmacy 454,454 Main St,Tashkent,Tashkent,+998900000453,24/7
Pharmacy 455,455 Main St,Nukus,Bukhara,+998900000454,10:00-20:00
Pharmacy 456,456 Main St,Namangan,Samarkand,+998900000455,24/7
Pharmacy 457,457 Main St,Fergana,Karakalpakstan,+998900000456,8:00-22:00
Pharmacy 458,458 Main St,Andijan,Samarkand,+998900000457,9:00-21:00
Pharmacy 459,459 Main St,Namangan,Bukhara,+998900000458,24/7
Pharmacy 460,460 Main St,Nukus,Tashkent,+998900000459,10:00-20:00
Pharmacy 461,461 Main St,Andijan,Karakalpakstan,+998900000460,9:00-21:00
Pharmacy 462,462 Main St,Fergana,Namangan,+998900000461,9:00-21:00
Pharmacy 463,463 Main St,Tashkent,Samarkand,+998900000462,24/7
Pharmacy 464,464 Main St,Nukus,Andijan,+998900000463,10:00-20:00
Pharmacy 465,465 Main St,Samarkand,Fergana,+998900000464,9:00-21:00
Pharmacy 466,466 Main St,Andijan,Bukhara,+998900000465,10:00-20:00
Pharmacy 467,467 Main St,Tashkent,Karakalpakstan,+998900000466,10:00-20:00
Pharmacy 468,468 Main St,Samarkand,Karakalpakstan,+998900000467,8:00-22:00
Pharmacy 469,469 Main St,Fergana,Bukhara,+998900000468,8:00-22:00
Pharmacy 470,470 Main St,Namangan,Tashkent,+998900000469,9:00-21:00
Pharmacy 471,471 Main St,Nukus,Tashkent,+998900000470,9:00-21:00
Pharmacy 472,472 Main St,Fergana,Samarkand,+998900000471,10:00-20:00
Pharmacy 473,473 Main St,Bukhara,Tashkent,+998900000472,8:00-22:00
Pharmacy 474,474 Main St,Samarkand,Bukhara,+998900000473,24/7
Pharmacy 475,475 Main St,Samarkand,Andijan,+998900000474,8:00-22:00
Pharmacy 476,476 Main St,Tashkent,Samarkand,+998900000475,10:00-20:00
Pharmacy 477,477 Main St,Tashkent,Namangan,+998900000476,24/7
Pharmacy 478,478 Main St,Tashkent,Karakalpakstan,+998900000477,9:00-21:00
Pharmacy 479,479 Main St,Nukus,Fergana,+998900000478,8:00-22:00
Pharmacy 480,480 Main St,Tashkent,Samarkand,+998900000479,9:00-21:00
Pharmacy 481,481 Main St,Andijan,Tashkent,+998900000480,8:00-22:00
Pharmacy 482,482 Main St,Namangan,Bukhara,+998900000481,10:00-20:00
Pharmacy 483,483 Main St,Namangan,Andijan,+998900000482,10:00-20:00
Pharmacy 484,484 Main St,Tashkent,Fergana,+998900000483,9:00-21:00
Pharmacy 485,485 Main St,Namangan,Samarkand,+998900000484,24/7
Pharmacy 486,486 Main St,Andijan,Bukhara,+998900000485,8:00-22:00
Pharmacy 487,487 Main St,Fergana,Andijan,+998900000486,10:00-20:00
Pharmacy 488,488 Main St,Bukhara,Bukhara,+998900000487,24/7
Pharmacy 489,489 Main St,Fergana,Namangan,+998900000488,8:00-22:00
Pharmacy 490,490 Main St,Samarkand,Tashkent,+998900000489,8:00-22:00
Pharmacy 491,491 Main St,Samarkand,Fergana,+998900000490,10:00-20:00
Pharmacy 492,492 Main St,Andijan,Bukhara,+998900000491,9:00-21:00
Pharmacy 493,493 Main St,Bukhara,Fergana,+998900000492,24/7
Pharmacy 494,494 Main St,Bukhara,Namangan,+998900000493,24/7
Pharmacy 495,495 Main St,Samarkand,Fergana,+998900000494,9:00-21:00
Pharmacy 496,496 Main St,Fergana,Fergana,+998900000495,24/7
Pharmacy 497,497 Main St,Fergana,Andijan,+998900000496,24/7
Pharmacy 498,498 Main St,Andijan,Samarkand,+998900000497,8:00-22:00
Pharmacy 499,499 Main St,Andijan,Bukhara,+998900000498,24/7
Pharmacy 500,500 Main St,Fergana,Karakalpakstan,+998900000499,10:00-20:00
Pharmacy 501,501 Main St,Tashkent,Namangan,+998900000500,10:00-20:00
Pharmacy 502,502 Main St,Samarkand,Bukhara,+998900000501,8:00-22:00
Pharmacy 503,503 Main St,Bukhara,Andijan,+998900000502,9:00-21:00
Pharmacy 504,504 Main St,Namangan,Bukhara,+998900000503,24/7
Pharmacy 505,505 Main St,Tashkent,Karakalpakstan,+998900000504,24/7
Pharmacy 506,506 Main St,Tashkent,Fergana,+998900000505,10:00-20:00
Pharmacy 507,507 Main St,Bukhara,Fergana,+998900000506,8:00-22:00
Pharmacy 508,508 Main St,Samarkand,Fergana,+998900000507,10:00-20:00
Pharmacy 509,509 Main St,Fergana,Karakalpakstan,+998900000508,10:00-20:00
Pharmacy 510,510 Main St,Namangan,Andijan,+998900000509,24/7
Pharmacy 511,511 Main St,Samarkand,Andijan,+998900000510,9:00-21:00
Pharmacy 512,512 Main St,Fergana,Tashkent,+998900000511,10:00-20:00
Pharmacy 513,513 Main St,Samarkand,Bukhara,+998900000512,10:00-20:00
Pharmacy 514,514 Main St,Nukus,Andijan,+998900000513,10:00-20:00
Pharmacy 515,515 Main St,Fergana,Karakalpakstan,+998900000514,8:00-22:00
Pharmacy 516,516 Main St,Tashkent,Samarkand,+998900000515,10:00-20:00
Pharmacy 517,517 Main St,Nukus,Tashkent,+998900000516,9:00-21:00
Pharmacy 518,518 Main St,Tashkent,Tashkent,+998900000517,10:00-20:00
Pharmacy 519,519 Main St,Bukhara,Samarkand,+998900000518,10:00-20:00
Pharmacy 520,520 Main St,Samarkand,Samarkand,+998900000519,10:00-20:00
Pharmacy 521,521 Main St,Namangan,Andijan,+998900000520,9:00-21:00
Pharmacy 522,522 Main St,Bukhara,Andijan,+998900000521,8:00-22:00
Pharmacy 523,523 Main St,Tashkent,Fergana,+998900000522,24/7
Pharmacy 524,524 Main St,Tashkent,Karakalpakstan,+998900000523,8:00-22:00
Pharmacy 525,525 Main St,Nukus,Andijan,+998900000524,24/7
Pharmacy 526,526 Main St,Nukus,Fergana,+998900000525,10:00-20:00
Pharmacy 527,527 Main St,Tashkent,Namangan,+998900000526,10:00-20:00
Pharmacy 528,528 Main St,Fergana,Bukhara,+998900000527,10:00-20:00
Pharmacy 529,529 Main St,Nukus,Andijan,+998900000528,9:00-21:00
Pharmacy 530,530 Main St,Bukhara,Bukhara,+998900000529,10:00-20:00
Pharmacy 531,531 Main St,Samarkand,Andijan,+998900000530,24/7
Pharmacy 532,532 Main St,Nukus,Fergana,+998900000531,10:00-20:00
Pharmacy 533,533 Main St,Bukhara,Bukhara,+998900000532,24/7
Pharmacy 534,534 Main St,Samarkand,Karakalpakstan,+998900000533,24/7
Pharmacy 535,535 Main St,Tashkent,Andijan,+998900000534,10:00-20:00
Pharmacy 536,536 Main St,Fergana,Karakalpakstan,+998900000535,10:00-20:00
Pharmacy 537,537 Main St,Tashkent,Namangan,+998900000536,10:00-20:00
Pharmacy 538,538 Main St,Tashkent,Bukhara,+998900000537,24/7
Pharmacy 539,539 Main St,Andijan,Tashkent,+998900000538,9:00-21:00
Pharmacy 540,540 Main St,Namangan,Samarkand,+998900000539,24/7
Pharmacy 541,541 Main St,Namangan,Bukhara,+998900000540,8:00-22:00
Pharmacy 542,542 Main St,Nukus,Andijan,+998900000541,24/7
Pharmacy 543,543 Main St,Fergana,Karakalpakstan,+998900000542,8:00-22:00
Pharmacy 544,544 Main St,Samarkand,Fergana,+998900000543,9:00-21:00
Pharmacy 545,545 Main St,Bukhara,Tashkent,+998900000544,10:00-20:00
Pharmacy 546,546 Main St,Fergana,Tashkent,+998900000545,9:00-21:00
Pharmacy 547,547 Main St,Namangan,Karakalpakstan,+998900000546,24/7
Pharmacy 548,548 Main St,Andijan,Bukhara,+998900000547,8:00-22:00
Pharmacy 549,549 Main St,Andijan,Fergana,+998900000548,10:00-20:00
Pharmacy 550,550 Main St,Samarkand,Fergana,+998900000549,8:00-22:00
Pharmacy 551,551 Main St,Andijan,Fergana,+998900000550,8:00-22:00
Pharmacy 552,552 Main St,Tashkent,Bukhara,+998900000551,8:00-22:00
Pharmacy 553,553 Main St,Namangan,Samarkand,+998900000552,8:00-22:00
Pharmacy 554,554 Main St,Nukus,Fergana,+998900000553,24/7
Pharmacy 555,555 Main St,Namangan,Samarkand,+998900000554,8:00-22:00
Pharmacy 556,556 Main St,Fergana,Bukhara,+998900000555,24/7
Pharmacy 557,557 Main St,Andijan,Karakalpakstan,+998900000556,8:00-22:00
Pharmacy 558,558 Main St,Andijan,Andijan,+998900000557,9:00-21:00
Pharmacy 559,559 Main St,Fergana,Fergana,+998900000558,10:00-20:00
Pharmacy 560,560 Main St,Samarkand,Namangan,+998900000559,24/7
Pharmacy 561,561 Main St,Bukhara,Andijan,+998900000560,10:00-20:00
Pharmacy 562,562 Main St,Nukus,Andijan,+998900000561,24/7
Pharmacy 563,563 Main St,Samarkand,Fergana,+998900000562,24/7
Pharmacy 564,564 Main St,Fergana,Namangan,+998900000563,9:00-21:00
Pharmacy 565,565 Main St,Namangan,Namangan,+998900000564,8:00-22:00
Pharmacy 566,566 Main St,Samarkand,Namangan,+998900000565,24/7
Pharmacy 567,567 Main St,Andijan,Samarkand,+998900000566,24/7
Pharmacy 568,568 Main St,Bukhara,Andijan,+998900000567,8:00-22:00
Pharmacy 569,569 Main St,Namangan,Namangan,+998900000568,24/7
Pharmacy 570,570 Main St,Samarkand,Andijan,+998900000569,9:00-21:00
Pharmacy 571,571 Main St,Samarkand,Karakalpakstan,+998900000570,9:00-21:00
Pharmacy 572,572 Main St,Bukhara,Andijan,+998900000571,8:00-22:00
Pharmacy 573,573 Main St,Andijan,Tashkent,+998900000572,9:00-21:00
Pharmacy 574,574 Main St,Nukus,Namangan,+998900000573,10:00-20:00
Pharmacy 575,575 Main St,Bukhara,Bukhara,+998900000574,9:00-21:00
Pharmacy 576,576 Main St,Andijan,Samarkand,+998900000575,9:00-21:00
Pharmacy 577,577 Main St,Fergana,Namangan,+998900000576,10:00-20:00
Pharmacy 578,578 Main St,Andijan,Samarkand,+998900000577,24/7
Pharmacy 579,579 Main St,Samarkand,Fergana,+998900000578,8:00-22:00
Pharmacy 580,580 Main St,Samarkand,Andijan,+998900000579,9:00-21:00
Pharmacy 581,581 Main St,Namangan,Karakalpakstan,+998900000580,24/7
Pharmacy 582,582 Main St,Samarkand,Andijan,+998900000581,10:00-20:00
Pharmacy 583,583 Main St,Tashkent,Namangan,+998900000582,10:00-20:00
Pharmacy 584,584 Main St,Bukhara,Samarkand,+998900000583,24/7
Pharmacy 585,585 Main St,Nukus,Fergana,+998900000584,10:00-20:00
Pharmacy 586,586 Main St,Fergana,Bukhara,+998900000585,9:00-21:00
Pharmacy 587,587 Main St,Samarkand,Samarkand,+998900000586,24/7
Pharmacy 588,588 Main St,Bukhara,Fergana,+998900000587,9:00-21:00
Pharmacy 589,589 Main St,Fergana,Samarkand,+998900000588,9:00-21:00
Pharmacy 590,590 Main St,Nukus,Samarkand,+998900000589,9:00-21:00
Pharmacy 591,591 Main St,Fergana,Samarkand,+998900000590,24/7
Pharmacy 592,592 Main St,Namangan,Andijan,+998900000591,10:00-20:00
Pharmacy 593,593 Main St,Nukus,Fergana,+998900000592,9:00-21:00
Pharmacy 594,594 Main St,Namangan,Karakalpakstan,+998900000593,8:00-22:00
Pharmacy 595,595 Main St,Namangan,Fergana,+998900000594,24/7
Pharmacy 596,596 Main St,Tashkent,Andijan,+998900000595,8:00-22:00
Pharmacy 597,597 Main St,Bukhara,Andijan,+998900000596,10:00-20:00
Pharmacy 598,598 Main St,Namangan,Fergana,+998900000597,8:00-22:00
Pharmacy 599,599 Main St,Bukhara,Fergana,+998900000598,10:00-20:00
Pharmacy 600,600 Main St,Nukus,Bukhara,+998900000599,9:00-21:00
Pharmacy 601,601 Main St,Andijan,Andijan,+998900000600,10:00-20:00
Pharmacy 602,602 Main St,Bukhara,Bukhara,+998900000601,10:00-20:00
Pharmacy 603,603 Main St,Fergana,Samarkand,+998900000602,24/7
Pharmacy 604,604 Main St,Nukus,Bukhara,+998900000603,8:00-22:00
Pharmacy 605,605 Main St,Andijan,Andijan,+998900000604,8:00-22:00
Pharmacy 606,606 Main St,Samarkand,Andijan,+998900000605,9:00-21:00
Pharmacy 607,607 Main St,Fergana,Andijan,+998900000606,10:00-20:00
Pharmacy 608,608 Main St,Namangan,Namangan,+998900000607,10:00-20:00
Pharmacy 609,609 Main St,Nukus,Fergana,+998900000608,8:00-22:00
Pharmacy 610,610 Main St,Tashkent,Bukhara,+998900000609,9:00-21:00
Pharmacy 611,611 Main St,Andijan,Samarkand,+998900000610,8:00-22:00
Pharmacy 612,612 Main St,Andijan,Namangan,+998900000611,9:00-21:00
Pharmacy 613,613 Main St,Bukhara,Namangan,+998900000612,24/7
Pharmacy 614,614 Main St,Samarkand,Fergana,+998900000613,10:00-20:00
Pharmacy 615,615 Main St,Nukus,Karakalpakstan,+998900000614,9:00-21:00
Pharmacy 616,616 Main St,Fergana,Tashkent,+998900000615,10:00-20:00
Pharmacy 617,617 Main St,Andijan,Samarkand,+998900000616,9:00-21:00
Pharmacy 618,618 Main St,Tashkent,Karakalpakstan,+998900000617,9:00-21:00
Pharmacy 619,619 Main St,Samarkand,Fergana,+998900000618,9:00-21:00
Pharmacy 620,620 Main St,Bukhara,Andijan,+998900000619,8:00-22:00
Pharmacy 621,621 Main St,Tashkent,Tashkent,+998900000620,9:00-21:00
Pharmacy 622,622 Main St,Tashkent,Karakalpakstan,+998900000621,24/7
Pharmacy 623,623 Main St,Namangan,Namangan,+998900000622,10:00-20:00
Pharmacy 624,624 Main St,Fergana,Tashkent,+998900000623,10:00-20:00
Pharmacy 625,625 Main St,Namangan,Bukhara,+998900000624,9:00-21:00
Pharmacy 626,626 Main St,Nukus,Andijan,+998900000625,10:00-20:00
Pharmacy 627,627 Main St,Andijan,Samarkand,+998900000626,8:00-22:00
Pharmacy 628,628 Main St,Tashkent,Tashkent,+998900000627,24/7
Pharmacy 629,629 Main St,Bukhara,Samarkand,+998900000628,10:00-20:00
Pharmacy 630,630 Main St,Andijan,Namangan,+998900000629,9:00-21:00
Pharmacy 631,631 Main St,Samarkand,Fergana,+998900000630,10:00-20:00
Pharmacy 632,632 Main St,Bukhara,Karakalpakstan,+998900000631,9:00-21:00
Pharmacy 633,633 Main St,Bukhara,Andijan,+998900000632,9:00-21:00
Pharmacy 634,634 Main St,Bukhara,Karakalpakstan,+998900000633,24/7
Pharmacy 635,635 Main St,Tashkent,Tashkent,+998900000634,9:00-21:00
Pharmacy 636,636 Main St,Fergana,Namangan,+998900000635,8:00-22:00
Pharmacy 637,637 Main St,Namangan,Karakalpakstan,+998900000636,8:00-22:00
Pharmacy 638,638 Main St,Tashkent,Samarkand,+998900000637,9:00-21:00
Pharmacy 639,639 Main St,Tashkent,Namangan,+998900000638,10:00-20:00
Pharmacy 640,640 Main St,Namangan,Andijan,+998900000639,9:00-21:00
Pharmacy 641,641 Main St,Bukhara,Bukhara,+998900000640,9:00-21:00
Pharmacy 642,642 Main St,Tashkent,Fergana,+998900000641,9:00-21:00
Pharmacy 643,643 Main St,Andijan,Namangan,+998900000642,24/7
Pharmacy 644,644 Main St,Namangan,Samarkand,+998900000643,9:00-21:00
Pharmacy 645,645 Main St,Samarkand,Samarkand,+998900000644,10:00-20:00
Pharmacy 646,646 Main St,Fergana,Samarkand,+998900000645,10:00-20:00
Pharmacy 647,647 Main St,Samarkand,Bukhara,+998900000646,10:00-20:00
Pharmacy 648,648 Main St,Nukus,Bukhara,+998900000647,9:00-21:00
Pharmacy 649,649 Main St,Bukhara,Samarkand,+998900000648,8:00-22:00
Pharmacy 650,650 Main St,Samarkand,Andijan,+998900000649,8:00-22:00
Pharmacy 651,651 Main St,Andijan,Fergana,+998900000650,9:00-21:00
Pharmacy 652,652 Main St,Fergana,Andijan,+998900000651,9:00-21:00
Pharmacy 653,653 Main St,Nukus,Bukhara,+998900000652,24/7
Pharmacy 654,654 Main St,Andijan,Samarkand,+998900000653,8:00-22:00
Pharmacy 655,655 Main St,Nukus,Fergana,+998900000654,8:00-22:00
Pharmacy 656,656 Main St,Namangan,Namangan,+998900000655,8:00-22:00
Pharmacy 657,657 Main St,Bukhara,Fergana,+998900000656,9:00-21:00
Pharmacy 658,658 Main St,Tashkent,Samarkand,+998900000657,9:00-21:00
Pharmacy 659,659 Main St,Namangan,Karakalpakstan,+998900000658,9:00-21:00
Pharmacy 660,660 Main St,Samarkand,Andijan,+998900000659,9:00-21:00
Pharmacy 661,661 Main St,Nukus,Karakalpakstan,+998900000660,10:00-20:00
Pharmacy 662,662 Main St,Tashkent,Samarkand,+998900000661,8:00-22:00
Pharmacy 663,663 Main St,Bukhara,Karakalpakstan,+998900000662,9:00-21:00
Pharmacy 664,664 Main St,Bukhara,Namangan,+998900000663,8:00-22:00
Pharmacy 665,665 Main St,Andijan,Fergana,+998900000664,9:00-21:00
Pharmacy 666,666 Main St,Bukhara,Andijan,+998900000665,9:00-21:00
Pharmacy 667,667 Main St,Bukhara,Fergana,+998900000666,8:00-22:00
Pharmacy 668,668 Main St,Namangan,Bukhara,+998900000667,10:00-20:00
Pharmacy 669,669 Main St,Samarkand,Samarkand,+998900000668,8:00-22:00
Pharmacy 670,670 Main St,Nukus,Namangan,+998900000669,8:00-22:00
Pharmacy 671,671 Main St,Namangan,Bukhara,+998900000670,10:00-20:00
Pharmacy 672,672 Main St,Fergana,Samarkand,+998900000671,10:00-20:00
Pharmacy 673,673 Main St,Tashkent,Bukhara,+998900000672,8:00-22:00
Pharmacy 674,674 Main St,Namangan,Andijan,+998900000673,8:00-22:00
Pharmacy 675,675 Main St,Andijan,Namangan,+998900000674,24/7
Pharmacy 676,676 Main St,Bukhara,Karakalpakstan,+998900000675,24/7
Pharmacy 677,677 Main St,Namangan,Fergana,+998900000676,8:00-22:00
Pharmacy 678,678 Main St,Samarkand,Bukhara,+998900000677,8:00-22:00
Pharmacy 679,679 Main St,Andijan,Tashkent,+998900000678,10:00-20:00
Pharmacy 680,680 Main St,Nukus,Karakalpakstan,+998900000679,24/7
Pharmacy 681,681 Main St,Andijan,Bukhara,+998900000680,9:00-21:00
Pharmacy 682,682 Main St,Fergana,Bukhara,+998900000681,8:00-22:00
Pharmacy 683,683 Main St,Andijan,Bukhara,+998900000682,24/7
Pharmacy 684,684 Main St,Nukus,Karakalpakstan,+998900000683,24/7
Pharmacy 685,685 Main St,Bukhara,Samarkand,+998900000684,9:00-21:00
Pharmacy 686,686 Main St,Andijan,Karakalpakstan,+998900000685,8:00-22:00
Pharmacy 687,687 Main St,Nukus,Karakalpakstan,+998900000686,10:00-20:00
Pharmacy 688,688 Main St,Nukus,Fergana,+998900000687,10:00-20:00
Pharmacy 689,689 Main St,Tashkent,Namangan,+998900000688,10:00-20:00
Pharmacy 690,690 Main St,Tashkent,Namangan,+998900000689,9:00-21:00
Pharmacy 691,691 Main St,Samarkand,Tashkent,+998900000690,9:00-21:00
Pharmacy 692,692 Main St,Andijan,Andijan,+998900000691,8:00-22:00
Pharmacy 693,693 Main St,Bukhara,Samarkand,+998900000692,10:00-20:00
Pharmacy 694,694 Main St,Namangan,Andijan,+998900000693,9:00-21:00
Pharmacy 695,695 Main St,Nukus,Karakalpakstan,+998900000694,9:00-21:00
Pharmacy 696,696 Main St,Fergana,Andijan,+998900000695,8:00-22:00
Pharmacy 697,697 Main St,Bukhara,Fergana,+998900000696,10:00-20:00
Pharmacy 698,698 Main St,Nukus,Andijan,+998900000697,9:00-21:00
Pharmacy 699,699 Main St,Nukus,Bukhara,+998900000698,8:00-22:00
Pharmacy 700,700 Main St,Andijan,Tashkent,+998900000699,8:00-22:00
Pharmacy 701,701 Main St,Nukus,Karakalpakstan,+998900000700,8:00-22:00
Pharmacy 702,702 Main St,Andijan,Fergana,+998900000701,9:00-21:00
Pharmacy 703,703 Main St,Andijan,Andijan,+998900000702,10:00-20:00
Pharmacy 704,704 Main St,Fergana,Tashkent,+998900000703,9:00-21:00
Pharmacy 705,705 Main St,Andijan,Karakalpakstan,+998900000704,10:00-20:00
Pharmacy 706,706 Main St,Samarkand,Tashkent,+998900000705,9:00-21:00
Pharmacy 707,707 Main St,Samarkand,Tashkent,+998900000706,9:00-21:00
Pharmacy 708,708 Main St,Tashkent,Namangan,+998900000707,8:00-22:00
Pharmacy 709,709 Main St,Bukhara,Samarkand,+998900000708,9:00-21:00
Pharmacy 710,710 Main St,Fergana,Samarkand,+998900000709,10:00-20:00
Pharmacy 711,711 Main St,Tashkent,Karakalpakstan,+998900000710,24/7
Pharmacy 712,712 Main St,Samarkand,Fergana,+998900000711,8:00-22:00
Pharmacy 713,713 Main St,Fergana,Tashkent,+998900000712,10:00-20:00
Pharmacy 714,714 Main St,Fergana,Andijan,+998900000713,10:00-20:00
Pharmacy 715,715 Main St,Bukhara,Karakalpakstan,+998900000714,10:00-20:00
Pharmacy 716,716 Main St,Namangan,Fergana,+998900000715,9:00-21:00
Pharmacy 717,717 Main St,Bukhara,Namangan,+998900000716,8:00-22:00
Pharmacy 718,718 Main St,Andijan,Tashkent,+998900000717,8:00-22:00
Pharmacy 719,719 Main St,Samarkand,Samarkand,+998900000718,9:00-21:00
Pharmacy 720,720 Main St,Bukhara,Bukhara,+998900000719,24/7
Pharmacy 721,721 Main St,Andijan,Namangan,+998900000720,8:00-22:00
Pharmacy 722,722 Main St,Nukus,Karakalpakstan,+998900000721,8:00-22:00
Pharmacy 723,723 Main St,Samarkand,Tashkent,+998900000722,8:00-22:00
Pharmacy 724,724 Main St,Samarkand,Namangan,+998900000723,24/7
Pharmacy 725,725 Main St,Namangan,Andijan,+998900000724,8:00-22:00
Pharmacy 726,726 Main St,Fergana,Karakalpakstan,+998900000725,8:00-22:00
Pharmacy 727,727 Main St,Fergana,Bukhara,+998900000726,8:00-22:00
Pharmacy 728,728 Main St,Nukus,Tashkent,+998900000727,24/7
Pharmacy 729,729 Main St,Andijan,Bukhara,+998900000728,9:00-21:00
Pharmacy 730,730 Main St,Tashkent,Samarkand,+998900000729,10:00-20:00
Pharmacy 731,731 Main St,Nukus,Fergana,+998900000730,9:00-21:00
Pharmacy 732,732 Main St,Nukus,Tashkent,+998900000731,24/7
Pharmacy 733,733 Main St,Tashkent,Fergana,+998900000732,24/7
Pharmacy 734,734 Main St,Nukus,Andijan,+998900000733,9:00-21:00
Pharmacy 735,735 Main St,Bukhara,Fergana,+998900000734,10:00-20:00
Pharmacy 736,736 Main St,Bukhara,Namangan,+998900000735,24/7
Pharmacy 737,737 Main St,Fergana,Tashkent,+998900000736,10:00-20:00
Pharmacy 738,738 Main St,Namangan,Fergana,+998900000737,8:00-22:00
Pharmacy 739,739 Main St,Namangan,Tashkent,+998900000738,8:00-22:00
Pharmacy 740,740 Main St,Fergana,Namangan,+998900000739,24/7
Pharmacy 741,741 Main St,Namangan,Fergana,+998900000740,8:00-22:00
Pharmacy 742,742 Main St,Andijan,Karakalpakstan,+998900000741,8:00-22:00
Pharmacy 743,743 Main St,Nukus,Namangan,+998900000742,8:00-22:00
Pharmacy 744,744 Main St,Fergana,Tashkent,+998900000743,24/7
Pharmacy 745,745 Main St,Bukhara,Namangan,+998900000744,10:00-20:00
Pharmacy 746,746 Main St,Nukus,Bukhara,+998900000745,10:00-20:00
Pharmacy 747,747 Main St,Samarkand,Tashkent,+998900000746,10:00-20:00
Pharmacy 748,748 Main St,Namangan,Namangan,+998900000747,8:00-22:00
Pharmacy 749,749 Main St,Andijan,Karakalpakstan,+998900000748,8:00-22:00
Pharmacy 750,750 Main St,Tashkent,Fergana,+998900000749,8:00-22:00
Pharmacy 751,751 Main St,Bukhara,Karakalpakstan,+998900000750,24/7
Pharmacy 752,752 Main St,Bukhara,Fergana,+998900000751,24/7
Pharmacy 753,753 Main St,Fergana,Tashkent,+998900000752,8:00-22:00
Pharmacy 754,754 Main St,Andijan,Tashkent,+998900000753,24/7
Pharmacy 755,755 Main St,Tashkent,Samarkand,+998900000754,8:00-22:00
Pharmacy 756,756 Main St,Nukus,Samarkand,+998900000755,24/7
Pharmacy 757,757 Main St,Fergana,Andijan,+998900000756,10:00-20:00
Pharmacy 758,758 Main St,Fergana,Namangan,+998900000757,9:00-21:00
Pharmacy 759,759 Main St,Nukus,Samarkand,+998900000758,8:00-22:00
Pharmacy 760,760 Main St,Namangan,Bukhara,+998900000759,10:00-20:00
Pharmacy 761,761 Main St,Samarkand,Fergana,+998900000760,9:00-21:00
Pharmacy 762,762 Main St,Namangan,Bukhara,+998900000761,24/7
Pharmacy 763,763 Main St,Nukus,Bukhara,+998900000762,10:00-20:00
Pharmacy 764,764 Main St,Andijan,Tashkent,+998900000763,24/7
Pharmacy 765,765 Main St,Tashkent,Bukhara,+998900000764,9:00-21:00
Pharmacy 766,766 Main St,Namangan,Andijan,+998900000765,9:00-21:00
Pharmacy 767,767 Main St,Samarkand,Karakalpakstan,+998900000766,9:00-21:00
Pharmacy 768,768 Main St,Samarkand,Bukhara,+998900000767,9:00-21:00
Pharmacy 769,769 Main St,Nukus,Fergana,+998900000768,9:00-21:00
Pharmacy 770,770 Main St,Fergana,Andijan,+998900000769,24/7
Pharmacy 771,771 Main St,Samarkand,Samarkand,+998900000770,10:00-20:00
Pharmacy 772,772 Main St,Nukus,Samarkand,+998900000771,24/7
Pharmacy 773,773 Main St,Fergana,Fergana,+998900000772,24/7
Pharmacy 774,774 Main St,Tashkent,Bukhara,+998900000773,24/7
Pharmacy 775,775 Main St,Andijan,Samarkand,+998900000774,24/7
Pharmacy 776,776 Main St,Fergana,Bukhara,+998900000775,8:00-22:00
Pharmacy 777,777 Main St,Namangan,Karakalpakstan,+998900000776,8:00-22:00
Pharmacy 778,778 Main St,Fergana,Namangan,+998900000777,9:00-21:00
Pharmacy 779,779 Main St,Samarkand,Samarkand,+998900000778,8:00-22:00
Pharmacy 780,780 Main St,Bukhara,Samarkand,+998900000779,10:00-20:00
Pharmacy 781,781 Main St,Tashkent,Fergana,+998900000780,9:00-21:00
Pharmacy 782,782 Main St,Namangan,Fergana,+998900000781,10:00-20:00
Pharmacy 783,783 Main St,Fergana,Karakalpakstan,+998900000782,10:00-20:00
Pharmacy 784,784 Main St,Fergana,Samarkand,+998900000783,8:00-22:00
Pharmacy 785,785 Main St,Samarkand,Bukhara,+998900000784,9:00-21:00
Pharmacy 786,786 Main St,Andijan,Samarkand,+998900000785,8:00-22:00
Pharmacy 787,787 Main St,Nukus,Fergana,+998900000786,10:00-20:00
Pharmacy 788,788 Main St,Nukus,Fergana,+998900000787,9:00-21:00
Pharmacy 789,789 Main St,Andijan,Tashkent,+998900000788,9:00-21:00
Pharmacy 790,790 Main St,Bukhara,Bukhara,+998900000789,9:00-21:00
Pharmacy 791,791 Main St,Fergana,Samarkand,+998900000790,8:00-22:00
Pharmacy 792,792 Main St,Nukus,Andijan,+998900000791,10:00-20:00
Pharmacy 793,793 Main St,Tashkent,Bukhara,+998900000792,9:00-21:00
Pharmacy 794,794 Main St,Tashkent,Andijan,+998900000793,8:00-22:00
Pharmacy 795,795 Main St,Nukus,Bukhara,+998900000794,10:00-20:00
Pharmacy 796,796 Main St,Tashkent,Andijan,+998900000795,24/7
Pharmacy 797,797 Main St,Samarkand,Fergana,+998900000796,8:00-22:00
Pharmacy 798,798 Main St,Tashkent,Andijan,+998900000797,8:00-22:00
Pharmacy 799,799 Main St,Fergana,Samarkand,+998900000798,9:00-21:00
Pharmacy 800,800 Main St,Samarkand,Bukhara,+998900000799,24/7
Pharmacy 801,801 Main St,Namangan,Karakalpakstan,+998900000800,24/7
Pharmacy 802,802 Main St,Tashkent,Bukhara,+998900000801,10:00-20:00
Pharmacy 803,803 Main St,Tashkent,Andijan,+998900000802,24/7
Pharmacy 804,804 Main St,Bukhara,Fergana,+998900000803,8:00-22:00
Pharmacy 805,805 Main St,Nukus,Tashkent,+998900000804,9:00-21:00
Pharmacy 806,806 Main St,Samarkand,Fergana,+998900000805,8:00-22:00
Pharmacy 807,807 Main St,Fergana,Andijan,+998900000806,8:00-22:00
Pharmacy 808,808 Main St,Fergana,Fergana,+998900000807,8:00-22:00
Pharmacy 809,809 Main St,Andijan,Namangan,+998900000808,9:00-21:00
Pharmacy 810,810 Main St,Namangan,Namangan,+998900000809,8:00-22:00
Pharmacy 811,811 Main St,Fergana,Andijan,+998900000810,8:00-22:00
Pharmacy 812,812 Main St,Bukhara,Bukhara,+998900000811,9:00-21:00
Pharmacy 813,813 Main St,Samarkand,Fergana,+998900000812,24/7
Pharmacy 814,814 Main St,Bukhara,Bukhara,+998900000813,24/7
Pharmacy 815,815 Main St,Tashkent,Fergana,+998900000814,8:00-22:00
Pharmacy 816,816 Main St,Nukus,Bukhara,+998900000815,8:00-22:00
Pharmacy 817,817 Main St,Samarkand,Fergana,+998900000816,9:00-21:00
Pharmacy 818,818 Main St,Andijan,Samarkand,+998900000817,8:00-22:00
Pharmacy 819,819 Main St,Nukus,Fergana,+998900000818,10:00-20:00
Pharmacy 820,820 Main St,Fergana,Karakalpakstan,+998900000819,10:00-20:00
Pharmacy 821,821 Main St,Namangan,Bukhara,+998900000820,10:00-20:00
Pharmacy 822,822 Main St,Samarkand,Tashkent,+998900000821,8:00-22:00
Pharmacy 823,823 Main St,Bukhara,Tashkent,+998900000822,10:00-20:00
Pharmacy 824,824 Main St,Samarkand,Karakalpakstan,+998900000823,10:00-20:00
Pharmacy 825,825 Main St,Andijan,Tashkent,+998900000824,8:00-22:00
Pharmacy 826,826 Main St,Fergana,Namangan,+998900000825,10:00-20:00
Pharmacy 827,827 Main St,Nukus,Namangan,+998900000826,10:00-20:00
Pharmacy 828,828 Main St,Nukus,Namangan,+998900000827,9:00-21:00
Pharmacy 829,829 Main St,Nukus,Namangan,+998900000828,9:00-21:00
Pharmacy 830,830 Main St,Andijan,Bukhara,+998900000829,8:00-22:00
Pharmacy 831,831 Main St,Nukus,Bukhara,+998900000830,24/7
Pharmacy 832,832 Main St,Fergana,Andijan,+998900000831,24/7
Pharmacy 833,833 Main St,Fergana,Tashkent,+998900000832,8:00-22:00
Pharmacy 834,834 Main St,Bukhara,Bukhara,+998900000833,8:00-22:00
Pharmacy 835,835 Main St,Tashkent,Bukhara,+998900000834,8:00-22:00
Pharmacy 836,836 Main St,Samarkand,Samarkand,+998900000835,10:00-20:00
Pharmacy 837,837 Main St,Samarkand,Andijan,+998900000836,8:00-22:00
Pharmacy 838,838 Main St,Samarkand,Namangan,+998900000837,9:00-21:00
Pharmacy 839,839 Main St,Andijan,Tashkent,+998900000838,8:00-22:00
Pharmacy 840,840 Main St,Nukus,Namangan,+998900000839,10:00-20:00
Pharmacy 841,841 Main St,Namangan,Samarkand,+998900000840,10:00-20:00
Pharmacy 842,842 Main St,Andijan,Tashkent,+998900000841,9:00-21:00
Pharmacy 843,843 Main St,Andijan,Samarkand,+998900000842,8:00-22:00
Pharmacy 844,844 Main St,Nukus,Namangan,+998900000843,9:00-21:00
Pharmacy 845,845 Main St,Andijan,Namangan,+998900000844,8:00-22:00
Pharmacy 846,846 Main St,Samarkand,Namangan,+998900000845,9:00-21:00
Pharmacy 847,847 Main St,Bukhara,Bukhara,+998900000846,8:00-22:00
Pharmacy 848,848 Main St,Andijan,Karakalpakstan,+998900000847,9:00-21:00
Pharmacy 849,849 Main St,Samarkand,Namangan,+998900000848,24/7
Pharmacy 850,850 Main St,Nukus,Karakalpakstan,+998900000849,24/7
Pharmacy 851,851 Main St,Samarkand,Andijan,+998900000850,8:00-22:00
Pharmacy 852,852 Main St,Andijan,Tashkent,+998900000851,24/7
Pharmacy 853,853 Main St,Namangan,Bukhara,+998900000852,8:00-22:00
Pharmacy 854,854 Main St,Tashkent,Samarkand,+998900000853,9:00-21:00
Pharmacy 855,855 Main St,Tashkent,Tashkent,+998900000854,24/7
Pharmacy 856,856 Main St,Bukhara,Bukhara,+998900000855,10:00-20:00
Pharmacy 857,857 Main St,Tashkent,Samarkand,+998900000856,8:00-22:00
Pharmacy 858,858 Main St,Tashkent,Andijan,+998900000857,24/7
Pharmacy 859,859 Main St,Andijan,Samarkand,+998900000858,24/7
Pharmacy 860,860 Main St,Nukus,Namangan,+998900000859,9:00-21:00
Pharmacy 861,861 Main St,Bukhara,Samarkand,+998900000860,9:00-21:00
Pharmacy 862,862 Main St,Andijan,Karakalpakstan,+998900000861,10:00-20:00
Pharmacy 863,863 Main St,Bukhara,Namangan,+998900000862,10:00-20:00
Pharmacy 864,864 Main St,Bukhara,Karakalpakstan,+998900000863,10:00-20:00
Pharmacy 865,865 Main St,Tashkent,Samarkand,+998900000864,9:00-21:00
Pharmacy 866,866 Main St,Nukus,Samarkand,+998900000865,8:00-22:00
Pharmacy 867,867 Main St,Andijan,Samarkand,+998900000866,8:00-22:00
Pharmacy 868,868 Main St,Bukhara,Tashkent,+998900000867,9:00-21:00
Pharmacy 869,869 Main St,Tashkent,Fergana,+998900000868,9:00-21:00
Pharmacy 870,870 Main St,Andijan,Fergana,+998900000869,10:00-20:00
Pharmacy 871,871 Main St,Tashkent,Karakalpakstan,+998900000870,10:00-20:00
Pharmacy 872,872 Main St,Samarkand,Karakalpakstan,+998900000871,8:00-22:00
Pharmacy 873,873 Main St,Fergana,Tashkent,+998900000872,10:00-20:00
Pharmacy 874,874 Main St,Bukhara,Bukhara,+998900000873,24/7
Pharmacy 875,875 Main St,Andijan,Karakalpakstan,+998900000874,8:00-22:00
Pharmacy 876,876 Main St,Nukus,Fergana,+998900000875,10:00-20:00
Pharmacy 877,877 Main St,Tashkent,Namangan,+998900000876,9:00-21:00
Pharmacy 878,878 Main St,Bukhara,Karakalpakstan,+998900000877,9:00-21:00
Pharmacy 879,879 Main St,Tashkent,Namangan,+998900000878,8:00-22:00
Pharmacy 880,880 Main St,Samarkand,Karakalpakstan,+998900000879,9:00-21:00
Pharmacy 881,881 Main St,Fergana,Samarkand,+998900000880,9:00-21:00
Pharmacy 882,882 Main St,Bukhara,Karakalpakstan,+998900000881,24/7
Pharmacy 883,883 Main St,Andijan,Samarkand,+998900000882,10:00-20:00
Pharmacy 884,884 Main St,Bukhara,Bukhara,+998900000883,10:00-20:00
Pharmacy 885,885 Main St,Fergana,Samarkand,+998900000884,9:00-21:00
Pharmacy 886,886 Main St,Samarkand,Samarkand,+998900000885,10:00-20:00
Pharmacy 887,887 Main St,Samarkand,Tashkent,+998900000886,24/7
Pharmacy 888,888 Main St,Samarkand,Andijan,+998900000887,8:00-22:00
Pharmacy 889,889 Main St,Andijan,Samarkand,+998900000888,9:00-21:00
Pharmacy 890,890 Main St,Tashkent,Karakalpakstan,+998900000889,24/7
Pharmacy 891,891 Main St,Tashkent,Andijan,+998900000890,10:00-20:00
Pharmacy 892,892 Main St,Samarkand,Samarkand,+998900000891,10:00-20:00
Pharmacy 893,893 Main St,Samarkand,Namangan,+998900000892,9:00-21:00
Pharmacy 894,894 Main St,Fergana,Fergana,+998900000893,24/7
Pharmacy 895,895 Main St,Tashkent,Tashkent,+998900000894,24/7
Pharmacy 896,896 Main St,Bukhara,Tashkent,+998900000895,9:00-21:00
Pharmacy 897,897 Main St,Andijan,Bukhara,+998900000896,8:00-22:00
Pharmacy 898,898 Main St,Namangan,Andijan,+998900000897,8:00-22:00
Pharmacy 899,899 Main St,Namangan,Fergana,+998900000898,10:00-20:00
Pharmacy 900,900 Main St,Namangan,Samarkand,+998900000899,10:00-20:00
Pharmacy 901,901 Main St,Samarkand,Tashkent,+998900000900,8:00-22:00
Pharmacy 902,902 Main St,Tashkent,Andijan,+998900000901,10:00-20:00
Pharmacy 903,903 Main St,Namangan,Karakalpakstan,+998900000902,24/7
Pharmacy 904,904 Main St,Samarkand,Tashkent,+998900000903,8:00-22:00
Pharmacy 905,905 Main St,Fergana,Namangan,+998900000904,24/7
Pharmacy 906,906 Main St,Bukhara,Karakalpakstan,+998900000905,8:00-22:00
Pharmacy 907,907 Main St,Andijan,Samarkand,+998900000906,10:00-20:00
Pharmacy 908,908 Main St,Fergana,Namangan,+998900000907,8:00-22:00
Pharmacy 909,909 Main St,Andijan,Samarkand,+998900000908,10:00-20:00
Pharmacy 910,910 Main St,Tashkent,Bukhara,+998900000909,10:00-20:00
Pharmacy 911,911 Main St,Samarkand,Bukhara,+998900000910,9:00-21:00
Pharmacy 912,912 Main St,Nukus,Karakalpakstan,+998900000911,9:00-21:00
Pharmacy 913,913 Main St,Namangan,Fergana,+998900000912,10:00-20:00
Pharmacy 914,914 Main St,Tashkent,Namangan,+998900000913,9:00-21:00
Pharmacy 915,915 Main St,Namangan,Tashkent,+998900000914,8:00-22:00
Pharmacy 916,916 Main St,Nukus,Fergana,+998900000915,8:00-22:00
Pharmacy 917,917 Main St,Samarkand,Fergana,+998900000916,24/7
Pharmacy 918,918 Main St,Fergana,Andijan,+998900000917,10:00-20:00
Pharmacy 919,919 Main St,Nukus,Andijan,+998900000918,10:00-20:00
Pharmacy 920,920 Main St,Samarkand,Namangan,+998900000919,10:00-20:00
Pharmacy 921,921 Main St,Fergana,Namangan,+998900000920,10:00-20:00
Pharmacy 922,922 Main St,Andijan,Bukhara,+998900000921,8:00-22:00
Pharmacy 923,923 Main St,Tashkent,Namangan,+998900000922,10:00-20:00
Pharmacy 924,924 Main St,Fergana,Fergana,+998900000923,9:00-21:00
Pharmacy 925,925 Main St,Andijan,Andijan,+998900000924,8:00-22:00
Pharmacy 926,926 Main St,Nukus,Bukhara,+998900000925,10:00-20:00
Pharmacy 927,927 Main St,Nukus,Namangan,+998900000926,24/7
Pharmacy 928,928 Main St,Tashkent,Tashkent,+998900000927,10:00-20:00
Pharmacy 929,929 Main St,Nukus,Bukhara,+998900000928,8:00-22:00
Pharmacy 930,930 Main St,Fergana,Bukhara,+998900000929,8:00-22:00
Pharmacy 931,931 Main St,Bukhara,Namangan,+998900000930,24/7
Pharmacy 932,932 Main St,Tashkent,Bukhara,+998900000931,24/7
Pharmacy 933,933 Main St,Andijan,Fergana,+998900000932,8:00-22:00
Pharmacy 934,934 Main St,Fergana,Fergana,+998900000933,8:00-22:00
Pharmacy 935,935 Main St,Samarkand,Andijan,+998900000934,24/7
Pharmacy 936,936 Main St,Fergana,Namangan,+998900000935,9:00-21:00
Pharmacy 937,937 Main St,Tashkent,Samarkand,+998900000936,10:00-20:00
Pharmacy 938,938 Main St,Nukus,Fergana,+998900000937,8:00-22:00
Pharmacy 939,939 Main St,Nukus,Andijan,+998900000938,24/7
Pharmacy 940,940 Main St,Tashkent,Samarkand,+998900000939,8:00-22:00
Pharmacy 941,941 Main St,Tashkent,Samarkand,+998900000940,24/7
Pharmacy 942,942 Main St,Samarkand,Andijan,+998900000941,9:00-21:00
Pharmacy 943,943 Main St,Nukus,Fergana,+998900000942,10:00-20:00
Pharmacy 944,944 Main St,Samarkand,Namangan,+998900000943,10:00-20:00
Pharmacy 945,945 Main St,Samarkand,Tashkent,+998900000944,9:00-21:00
Pharmacy 946,946 Main St,Andijan,Tashkent,+998900000945,10:00-20:00
Pharmacy 947,947 Main St,Bukhara,Karakalpakstan,+998900000946,9:00-21:00
Pharmacy 948,948 Main St,Samarkand,Fergana,+998900000947,24/7
Pharmacy 949,949 Main St,Andijan,Andijan,+998900000948,10:00-20:00
Pharmacy 950,950 Main St,Andijan,Fergana,+998900000949,10:00-20:00
Pharmacy 951,951 Main St,Nukus,Fergana,+998900000950,10:00-20:00
Pharmacy 952,952 Main St,Bukhara,Andijan,+998900000951,24/7
Pharmacy 953,953 Main St,Fergana,Andijan,+998900000952,10:00-20:00
Pharmacy 954,954 Main St,Samarkand,Samarkand,+998900000953,9:00-21:00
Pharmacy 955,955 Main St,Namangan,Samarkand,+998900000954,10:00-20:00
Pharmacy 956,956 Main St,Namangan,Bukhara,+998900000955,9:00-21:00
Pharmacy 957,957 Main St,Namangan,Namangan,+998900000956,9:00-21:00
Pharmacy 958,958 Main St,Bukhara,Fergana,+998900000957,24/7
Pharmacy 959,959 Main St,Bukhara,Karakalpakstan,+998900000958,24/7
Pharmacy 960,960 Main St,Namangan,Andijan,+998900000959,9:00-21:00
Pharmacy 961,961 Main St,Samarkand,Fergana,+998900000960,24/7
Pharmacy 962,962 Main St,Tashkent,Namangan,+998900000961,24/7
Pharmacy 963,963 Main St,Andijan,Tashkent,+998900000962,24/7
Pharmacy 964,964 Main St,Bukhara,Samarkand,+998900000963,8:00-22:00
Pharmacy 965,965 Main St,Samarkand,Namangan,+998900000964,24/7
Pharmacy 966,966 Main St,Tashkent,Karakalpakstan,+998900000965,9:00-21:00
Pharmacy 967,967 Main St,Tashkent,Namangan,+998900000966,9:00-21:00
Pharmacy 968,968 Main St,Fergana,Andijan,+998900000967,8:00-22:00
Pharmacy 969,969 Main St,Samarkand,Namangan,+998900000968,8:00-22:00
Pharmacy 970,970 Main St,Fergana,Andijan,+998900000969,8:00-22:00
Pharmacy 971,971 Main St,Fergana,Tashkent,+998900000970,8:00-22:00
Pharmacy 972,972 Main St,Nukus,Samarkand,+998900000971,24/7
Pharmacy 973,973 Main St,Namangan,Bukhara,+998900000972,8:00-22:00
Pharmacy 974,974 Main St,Samarkand,Andijan,+998900000973,10:00-20:00
Pharmacy 975,975 Main St,Andijan,Fergana,+998900000974,8:00-22:00
Pharmacy 976,976 Main St,Andijan,Karakalpakstan,+998900000975,8:00-22:00
Pharmacy 977,977 Main St,Namangan,Andijan,+998900000976,24/7
Pharmacy 978,978 Main St,Fergana,Samarkand,+998900000977,9:00-21:00
Pharmacy 979,979 Main St,Fergana,Fergana,+998900000978,9:00-21:00
Pharmacy 980,980 Main St,Tashkent,Andijan,+998900000979,10:00-20:00
Pharmacy 981,981 Main St,Namangan,Namangan,+998900000980,24/7
Pharmacy 982,982 Main St,Samarkand,Tashkent,+998900000981,9:00-21:00
Pharmacy 983,983 Main St,Fergana,Samarkand,+998900000982,24/7
Pharmacy 984,984 Main St,Fergana,Tashkent,+998900000983,10:00-20:00
Pharmacy 985,985 Main St,Bukhara,Karakalpakstan,+998900000984,9:00-21:00
Pharmacy 986,986 Main St,Samarkand,Fergana,+998900000985,24/7
Pharmacy 987,987 Main St,Tashkent,Tashkent,+998900000986,24/7
Pharmacy 988,988 Main St,Andijan,Karakalpakstan,+998900000987,9:00-21:00
Pharmacy 989,989 Main St,Nukus,Karakalpakstan,+998900000988,8:00-22:00
Pharmacy 990,990 Main St,Fergana,Karakalpakstan,+998900000989,8:00-22:00
Pharmacy 991,991 Main St,Tashkent,Bukhara,+998900000990,8:00-22:00
Pharmacy 992,992 Main St,Namangan,Fergana,+998900000991,9:00-21:00
Pharmacy 993,993 Main St,Nukus,Andijan,+998900000992,10:00-20:00
Pharmacy 994,994 Main St,Fergana,Andijan,+998900000993,24/7
Pharmacy 995,995 Main St,Samarkand,Bukhara,+998900000994,24/7
Pharmacy 996,996 Main St,Tashkent,Bukhara,+998900000995,10:00-20:00
Pharmacy 997,997 Main St,Nukus,Bukhara,+998900000996,9:00-21:00
Pharmacy 998,998 Main St,Fergana,Bukhara,+998900000997,9:00-21:00
Pharmacy 999,999 Main St,Samarkand,Karakalpakstan,+998900000998,8:00-22:00
Pharmacy 1000,1000 Main St,Nukus,Andijan,+998900000999,9:00-21:00
